CYGNUS NG-23            
1 65616U 25208A   25362.85596044  .00017513  00000+0  31501-3 0  9999
2 65616  51.6321  62.6585 0003274 316.0949  43.9780 15.49919671   221
DRAGONFLY               
1 65729U 98067XH  25362.85752193  .00277940  00000+0  15508-2 0  9996
2 65729  51.6252  52.8860 0008570  11.7702 348.3498 15.78009610 15708
1998-067XK              
1 65731U 98067XK  25362.42002430  .00132128  00000+0  11119-2 0  9996
2 65731  51.6293  57.5001 0005104 342.8254  17.2570 15.68911796 15603
RSP-03                  
1 65732U 98067XL  25362.96280951  .00198251  00000+0  13852-2 0  9997
2 65732  51.6264  53.6076 0006284 353.9046   6.1875 15.73117954 15710
GHS-01                  
1 65733U 98067XM  25361.88679635  .00344717  00000+0  15714-2 0  9998
2 65733  51.6276  56.9127 0009580  10.1535 349.9659 15.82243780 15573
YOTSUBA-KULOVER         
1 65941U 98067XN  25362.40229409  .00086923  00000+0  98550-3 0  9990
2 65941  51.6293  61.1334 0002847  15.7949 344.3133 15.61634707 12304
BOTAN                   
1 65942U 98067XP  25362.87799181  .00155553  00000+0  14401-2 0  9999
2 65942  51.6282  57.5575 0003924   3.5779 356.5245 15.66486827 12393
E-KAGAKU-1              
1 65943U 98067XQ  25362.40234409  .00089775  00000+0  10163-2 0  9999
2 65943  51.6304  61.1386 0001592 353.4513   6.6460 15.61660779 12300
HRC MONOBLOCK CAMERA    
1 66052U 98067XR  25362.59237394  .00042061  00000+0  61328-3 0  9994
2 66052  51.6304  62.3998 0001759 265.7910  94.2880 15.55264133 11300
HTV-X1                  
1 66174U 25241A   25362.85596044  .00017513  00000+0  31501-3 0  9996
2 66174  51.6321  62.6585 0003274 316.0949  43.9780 15.49919671   513
SZ-21 MODULE            
1 66515U 25246C   25362.76988595  .00034087  00000+0  36158-3 0  9994
2 66515  41.4763 278.1983 0003746 347.8379  12.2370 15.63373311  6957
SHENZHOU-22             
1 66645U 25272A   25362.78858609  .00023392  00000+0  28592-3 0  9991
2 66645  41.4673 279.2286 0009137 170.0134 190.0887 15.59820251265987
